NORAD_CAT_ID,OBJECT_NAME,OBJECT_TYPE,EPOCH,MEAN_MOTION,ECCENTRICITY,INCLINATION,RA_OF_ASC_NODE,ARG_OF_PERICENTER,MEAN_ANOMALY,BSTAR,MEAN_MOTION_DOT,MEAN_MOTION_DDOT,TLE_LINE0,TLE_LINE1,TLE_LINE2,SEMIMAJOR_AXIS,PERIOD,APOGEE,PERIGEE,DECAYED
54808.0,STARLINK-5413,PAYLOAD,2023-05-28 14:30:25,15.08862606,9.28e-05,53.216,255.7159,105.2731,254.8363,-0.00023553,-4.037e-05,0.0,0 STARLINK-5413,1 54808U 22175BC  23148.60446537 -.00004037  00000-0 -23553-3 0  9992,2 54808  53.2160 255.7159 0000928 105.2731 254.8363 15.08862606 24780,6917.811,95.436,540.318,539.034,0.0
54808.0,STARLINK-5413,PAYLOAD,2023-05-29 00:02:44,15.08839056,0.0001013,53.2164,253.9323,103.2016,256.9089,4.0941e-05,3.64e-06,0.0,0 STARLINK-5413,1 54808U 22175BC  23149.00190893  .00000364  00000-0  40941-4 0  9996,2 54808  53.2164 253.9323 0001013 103.2016 256.9089 15.08839056 24845,6917.883,95.438,540.449,539.047,0.0
54808.0,STARLINK-5413,PAYLOAD,2023-05-29 14:21:13,15.08839882,9.88e-05,53.2164,251.255,98.8559,261.2545,4.723e-05,4.64e-06,0.0,0 STARLINK-5413,1 54808U 22175BC  23149.59806875  .00000464  00000-0  47230-4 0  9993,2 54808  53.2164 251.2550 0000988  98.8559 261.2545 15.08839882 27092,6917.881,95.438,540.429,539.062,0.0
54808.0,STARLINK-5413,PAYLOAD,2023-05-30 12:36:37,15.08835989,0.0001074,53.2169,247.0922,94.6682,265.4433,-4.4255e-05,-9.92e-06,0.0,0 STARLINK-5413,1 54808U 22175BC  23150.52543627 -.00000992  00000-0 -44255-4 0  9993,2 54808  53.2169 247.0922 0001074  94.6682 265.4433 15.08835989 27233,6917.893,95.438,540.501,539.015,0.0
54808.0,STARLINK-5413,PAYLOAD,2023-05-30 14:12:00,15.0883752,0.0001041,53.2169,246.7948,93.9331,266.178,-3.1598e-05,-7.91e-06,0.0,0 STARLINK-5413,1 54808U 22175BC  23150.59167493 -.00000791  00000-0 -31598-4 0  9996,2 54808  53.2169 246.7948 0001041  93.9331 266.1780 15.08837520 25081,6917.888,95.438,540.473,539.033,0.0
54808.0,STARLINK-5413,PAYLOAD,2023-05-31 10:52:00,15.08882229,0.0001256,53.2165,242.9292,73.8161,286.297,-0.00052442,-8.634e-05,0.0,0 STARLINK-5413,1 54808U 22175BC  23151.45278153 -.00008634  00000-0 -52442-3 0  9992,2 54808  53.2165 242.9292 0001256  73.8161 286.2970 15.08882229 25218,6917.751,95.435,540.485,538.747,0.0
54808.0,STARLINK-5413,PAYLOAD,2023-05-31 12:27:24,15.08842037,0.0001019,53.2163,242.6318,80.1877,279.923,2.7501e-05,1.5e-06,0.0,0 STARLINK-5413,1 54808U 22175BC  23151.51903054  .00000150  00000-0  27501-4 0  9996,2 54808  53.2163 242.6318 0001019  80.1877 279.9230 15.08842037 27385,6917.874,95.437,540.444,539.034,0.0
54808.0,STARLINK-5413,PAYLOAD,2023-05-31 15:38:10,15.08846494,0.0001,53.2164,242.0364,85.9018,274.2088,5.7838e-05,6.33e-06,0.0,0 STARLINK-5413,1 54808U 22175BC  23151.65150607  .00000633  00000-0  57838-4 0  9991,2 54808  53.2164 242.0364 0001000  85.9018 274.2088 15.08846494 25244,6917.861,95.437,540.417,539.034,0.0
54808.0,STARLINK-5413,PAYLOAD,2023-05-31 23:35:06,15.08837503,9.41e-05,53.2172,240.549,93.5446,266.5654,4.6694e-05,4.55e-06,0.0,0 STARLINK-5413,1 54808U 22175BC  23151.98271073  .00000455  00000-0  46694-4 0  9998,2 54808  53.2172 240.5490 0000941  93.5446 266.5654 15.08837503 25298,6917.888,95.438,540.404,539.102,0.0
54808.0,STARLINK-5413,PAYLOAD,2023-06-01 10:42:48,15.08839504,9.86e-05,53.2164,238.4681,83.8614,276.2491,1.8777e-05,1.1e-07,0.0,0 STARLINK-5413,1 54808U 22175BC  23152.44639196  .00000011  00000-0  18777-4 0  9993,2 54808  53.2164 238.4681 0000986  83.8614 276.2491 15.08839504 27523,6917.882,95.438,540.429,539.065,0.0
54808.0,STARLINK-5413,PAYLOAD,2023-06-02 10:33:35,15.08834147,0.0001,53.2163,234.0081,83.2278,276.8828,-3.2854e-05,-8.1e-06,0.0,0 STARLINK-5413,1 54808U 22175BC  23153.43999805 -.00000810  00000-0 -32854-4 0  9990,2 54808  53.2163 234.0081 0001000  83.2278 276.8828 15.08834147 25511,6917.898,95.438,540.455,539.071,0.0
54808.0,STARLINK-5413,PAYLOAD,2023-06-02 12:08:58,15.08837029,9.58e-05,53.2163,233.7104,84.445,275.6652,-4.3647e-05,-9.82e-06,0.0,0 STARLINK-5413,1 54808U 22175BC  23153.50623685 -.00000982  00000-0 -43647-4 0  9990,2 54808  53.2163 233.7104 0000958  84.4450 275.6652 15.08837029 27683,6917.889,95.438,540.417,539.092,0.0
54808.0,STARLINK-5413,PAYLOAD,2023-06-02 15:19:44,15.08838331,9.14e-05,53.2163,233.1155,90.461,269.6487,-2.2261e-05,-6.42e-06,0.0,0 STARLINK-5413,1 54808U 22175BC  23153.63871510 -.00000642  00000-0 -22261-4 0  9998,2 54808  53.2163 233.1155 0000914  90.4610 269.6487 15.08838331 27709,6917.885,95.438,540.383,539.118,0.0
54808.0,STARLINK-5413,PAYLOAD,2023-06-03 11:59:45,15.08840288,0.0001216,53.2166,229.2481,106.1234,253.9892,-4.073e-05,-9.36e-06,0.0,0 STARLINK-5413,1 54808U 22175BC  23154.49983635 -.00000936  00000-0 -40730-4 0  9992,2 54808  53.2166 229.2481 0001216 106.1234 253.9892 15.08840288 27837,6917.88,95.438,540.586,538.903,0.0
54808.0,STARLINK-5413,PAYLOAD,2023-06-03 21:32:04,15.08839606,9.45e-05,53.2167,227.4644,88.4198,271.6903,-3.8908e-05,-9.07e-06,0.0,0 STARLINK-5413,1 54808U 22175BC  23154.89727730 -.00000907  00000-0 -38908-4 0  9990,2 54808  53.2167 227.4644 0000945  88.4198 271.6903 15.08839606 27896,6917.882,95.438,540.4,539.093,0.0
54808.0,STARLINK-5413,PAYLOAD,2023-06-04 11:50:33,15.0883751,9.54e-05,53.2161,224.7894,91.9519,268.1582,4.1112e-05,3.67e-06,0.0,0 STARLINK-5413,1 54808U 22175BC  23155.49343782  .00000367  00000-0  41112-4 0  9997,2 54808  53.2161 224.7894 0000954  91.9519 268.1582 15.08837510 27989,6917.888,95.438,540.413,539.093,0.0
54808.0,STARLINK-5413,PAYLOAD,2023-06-04 21:22:51,15.08838313,0.0001046,53.2169,223.0054,83.6714,276.4397,4.4041e-05,4.13e-06,0.0,0 STARLINK-5413,1 54808U 22175BC  23155.89087803  .00000413  00000-0  44041-4 0  9996,2 54808  53.2169 223.0054 0001046  83.6714 276.4397 15.08838313 28041,6917.886,95.438,540.474,539.027,0.0
54808.0,STARLINK-5413,PAYLOAD,2023-06-05 05:19:47,15.08836369,0.0001013,53.2171,221.5192,90.1601,269.9508,2.1138e-05,4.9e-07,0.0,0 STARLINK-5413,1 54808U 22175BC  23156.22208050  .00000049  00000-0  21138-4 0  9990,2 54808  53.2171 221.5192 0001013  90.1601 269.9508 15.08836369 25937,6917.891,95.438,540.457,539.056,0.0
54808.0,STARLINK-5413,PAYLOAD,2023-06-05 13:16:43,15.08840048,0.0001004,53.2167,220.0321,81.7101,278.4005,4.7989e-05,4.76e-06,0.0,0 STARLINK-5413,1 54808U 22175BC  23156.55327765  .00000476  00000-0  47989-4 0  9997,2 54808  53.2167 220.0321 0001004  81.7101 278.4005 15.08840048 28143,6917.88,95.438,540.44,539.051,0.0
54808.0,STARLINK-5413,PAYLOAD,2023-06-05 14:52:06,15.08840961,0.0001014,53.2166,219.7346,82.1392,277.9715,5.472e-05,5.83e-06,0.0,0 STARLINK-5413,1 54808U 22175BC  23156.61951676  .00000583  00000-0  54720-4 0  9998,2 54808  53.2166 219.7346 0001014  82.1392 277.9715 15.08840961 28159,6917.877,95.437,540.444,539.041,0.0
54808.0,STARLINK-5413,PAYLOAD,2023-06-06 08:21:21,15.0883529,0.0001083,53.2166,216.4635,81.1358,278.9757,-6.652e-06,-3.94e-06,0.0,0 STARLINK-5413,1 54808U 22175BC  23157.34816365 -.00000394  00000-0 -66520-5 0  9998,2 54808  53.2166 216.4635 0001083  81.1358 278.9757 15.08835290 26100,6917.895,95.438,540.509,539.011,0.0
54808.0,STARLINK-5413,PAYLOAD,2023-06-06 11:32:07,15.08839115,0.0001083,53.2166,215.8684,79.3531,280.7583,-4.4617e-06,-3.59e-06,0.0,0 STARLINK-5413,1 54808U 22175BC  23157.48064141 -.00000359  00000-0 -44617-5 0  9994,2 54808  53.2166 215.8684 0001083  79.3531 280.7583 15.08839115 28288,6917.883,95.438,540.497,538.999,0.0
54808.0,STARLINK-5413,PAYLOAD,2023-06-06 13:07:30,15.08840456,0.0001081,53.2166,215.571,79.1982,280.9132,5.8195e-06,-1.95e-06,0.0,0 STARLINK-5413,1 54808U 22175BC  23157.54688017 -.00000195  00000-0  58195-5 0  9998,2 54808  53.2166 215.5710 0001081  79.1982 280.9132 15.08840456 28294,6917.879,95.438,540.492,538.996,0.0
54808.0,STARLINK-5413,PAYLOAD,2023-06-07 12:58:17,15.08842546,0.0001096,53.2164,211.1102,85.1321,274.9796,2.0607e-05,4e-07,0.0,0 STARLINK-5413,1 54808U 22175BC  23158.54047786  .00000040  00000-0  20607-4 0  9995,2 54808  53.2164 211.1102 0001096  85.1321 274.9796 15.08842546 28447,6917.873,95.437,540.496,538.979,0.0
54808.0,STARLINK-5413,PAYLOAD,2023-06-08 09:38:18,15.08838311,0.0001075,53.2168,207.2446,83.5815,276.53,-5.8382e-07,-2.97e-06,0.0,0 STARLINK-5413,1 54808U 22175BC  23159.40160127 -.00000297  00000-0 -58382-6 0  9995,2 54808  53.2168 207.2446 0001075  83.5815 276.5300 15.08838311 26414,6917.886,95.438,540.494,539.007,0.0
54808.0,STARLINK-5413,PAYLOAD,2023-06-08 12:49:04,15.08840694,0.0001069,53.2167,206.6495,84.5145,275.5969,1.5329e-05,-4.4e-07,0.0,0 STARLINK-5413,1 54808U 22175BC  23159.53407910 -.00000044  00000-0  15329-4 0  9994,2 54808  53.2167 206.6495 0001069  84.5145 275.5969 15.08840694 28598,6917.878,95.438,540.483,539.004,0.0
54808.0,STARLINK-5413,PAYLOAD,2023-06-09 09:29:05,15.08842592,0.000106,53.2171,202.7837,92.0931,268.0183,7.9163e-06,-1.62e-06,0.0,0 STARLINK-5413,1 54808U 22175BC  23160.39519714 -.00000162  00000-0  79163-5 0  9994,2 54808  53.2171 202.7837 0001060  92.0931 268.0183 15.08842592 28727,6917.872,95.437,540.471,539.004,0.0
54808.0,STARLINK-5413,PAYLOAD,2023-06-10 02:58:20,15.0883646,0.0001055,53.2169,199.5133,88.264,271.8473,-2.8338e-05,-7.39e-06,0.0,0 STARLINK-5413,1 54808U 22175BC  23161.12384275 -.00000739  00000-0 -28338-4 0  9996,2 54808  53.2169 199.5133 0001055  88.2640 271.8473 15.08836460 26677,6917.891,95.438,540.486,539.026,0.0
54808.0,STARLINK-5413,PAYLOAD,2023-06-10 12:30:38,15.08836253,0.0001017,53.2171,197.7295,87.785,272.3258,-3.134e-05,-7.86e-06,0.0,0 STARLINK-5413,1 54808U 22175BC  23161.52128365 -.00000786  00000-0 -31340-4 0  9995,2 54808  53.2171 197.7295 0001017  87.7850 272.3258 15.08836253 28897,6917.892,95.438,540.46,539.053,0.0
54808.0,STARLINK-5413,PAYLOAD,2023-06-10 18:52:11,15.08835638,0.0001016,53.2171,196.5401,87.1206,272.9903,-3.3344e-05,-8.18e-06,0.0,0 STARLINK-5413,1 54808U 22175BC  23161.78624459 -.00000818  00000-0 -33344-4 0  9990,2 54808  53.2171 196.5401 0001016  87.1206 272.9903 15.08835638 28935,6917.894,95.438,540.462,539.056,0.0
